ONEWEB-0387             
1 49313U 21090AL  25060.34126023  .00000147  00000+0  32967-3 0  9997
2 49313  87.9300   8.5917 0001495  78.3328 281.7973 13.20771661167408
ONEWEB-0388             
1 49314U 21090AM  25060.46268694  .00000295  00000+0  70366-3 0  9991
2 49314  87.9183  38.9365 0001831  88.2432 271.8910 13.19721743164066
ONEWEB-0389             
1 50469U 21132A   25060.57200001 -.00000026  00000+0 -10035-3 0  9992
2 50469  87.9029 100.0254 0001554 100.4752 259.6554 13.17648587155846
ONEWEB-0390             
1 50470U 21132B   25060.57369409  .00000029  00000+0  42588-4 0  9992
2 50470  87.9029 100.0321 0001898  87.2015 272.9334 13.17647951155846
ONEWEB-0391             
1 50471U 21132C   25060.57536837  .00000005  00000+0 -19436-4 0  9995
2 50471  87.9038 100.0358 0001022  96.1690 263.9558 13.17646869155849
ONEWEB-0392             
1 50472U 21132D   25060.52980801  .00000076  00000+0  16280-3 0  9995
2 50472  87.9018 100.0080 0001487 100.7704 259.3595 13.17646688155875
ONEWEB-0393             
1 50473U 21132E   25060.57889291 -.00000080  00000+0 -23841-3 0  9990
2 50473  87.9034 100.0007 0001753  97.3106 262.8225 13.17647755155871
ONEWEB-0394             
1 50474U 21132F   25060.53903167  .00000086  00000+0  18459-3 0  9999
2 50474  87.9042  69.4301 0001798  92.9399 267.1939 13.18685373160572
